H1 CPF 01  gfz 2022 06 06 12  6572 terrasarx 
H2 0702601  6201 31698    2022 06 06 00 59 42 2022 06 11 00 00 42   120 1 1  0 0 0
H9
10 0 59739  25902.000000  0    6112777.988  -2243836.693  -2258619.762
10 0 59739  26022.000000  0    5719903.649  -2289937.441  -3090512.438
10 0 59739  26142.000000  0    5226971.712  -2288384.663  -3868172.320
10 0 59739  26262.000000  0    4643514.424  -2237579.230  -4578022.931
10 0 59739  26382.000000  0    3980641.947  -2136960.204  -5207706.156
10 0 59739  26502.000000  0    3250820.148  -1987035.602  -5746290.811
10 0 59739  26622.000000  0    2467629.018  -1789390.651  -6184451.721
10 0 59739  26742.000000  0    1645507.528  -1546674.068  -6514620.971
10 0 59739  26862.000000  0     799485.919  -1262562.404  -6731108.416
10 0 59739  26982.000000  0     -55086.647   -941704.231  -6830189.089
10 0 59739  27102.000000  0    -902815.372   -589644.705  -6810159.893
10 0 59739  27222.000000  0   -1728530.518   -212731.832  -6671365.817
10 0 59739  27342.000000  0   -2517552.991    181995.483  -6416193.937
10 0 59739  27462.000000  0   -3255949.070    586934.768  -6049036.145
10 0 59739  27582.000000  0   -3930772.713    994061.871  -5576222.579
10 0 59739  27702.000000  0   -4530293.492   1395084.999  -5005923.278
10 0 59739  27822.000000  0   -5044204.753   1781609.516  -4348019.392
10 0 59739  27942.000000  0   -5463808.722   2145311.129  -3613942.254
10 0 59739  28062.000000  0   -5782172.832   2478111.640  -2816483.304
10 0 59739  28182.000000  0   -5994255.631   2772355.074  -1969577.306
10 0 59739  28302.000000  0   -6096997.686   3020980.016  -1088060.805
10 0 59739  28422.000000  0   -6089374.304   3217684.018   -187410.126
10 0 59739  28542.000000  0   -5972408.125   3357074.987    716536.331
10 0 59739  28662.000000  0   -5749139.185   3434805.085   1607865.516
10 0 59739  28782.000000  0   -5424553.616   3447684.495   2470878.806
10 0 59739  28902.000000  0   -5005473.434   3393771.334   3290376.776
10 0 59739  29022.000000  0   -4500410.608   3272435.648   4051934.214
10 0 59739  29142.000000  0   -3919388.072   3084395.418   4742158.805
10 0 59739  29262.000000  0   -3273734.258   2831724.647   5348927.259
10 0 59739  29382.000000  0   -2575855.556   2517834.581   5861597.678
10 0 59739  29502.000000  0   -1838990.899   2147427.005   6271192.450
10 0 59739  29622.000000  0   -1076955.104   1726421.246   6570549.705
10 0 59739  29742.000000  0    -303877.132   1261857.124   6754440.732
10 0 59739  29862.000000  0     466061.405    761775.422   6819655.723
10 0 59739  29982.000000  0    1218885.777    235078.312   6765056.086
10 0 59739  30102.000000  0    1941080.451   -308628.361   6591593.052
10 0 59739  30222.000000  0    2619830.868   -859209.619   6302293.009
10 0 59739  30342.000000  0    3243251.366  -1406189.347   5902208.772
10 0 59739  30462.000000  0    3800596.523  -1938949.116   5398337.091
10 0 59739  30582.000000  0    4282450.423  -2446934.455   4799501.403
10 0 59739  30702.000000  0    4680891.034  -2919864.715   4116203.659
10 0 59739  30822.000000  0    4989627.756  -3347943.782   3360445.038
10 0 59739  30942.000000  0    5204108.119  -3722065.354   2545516.171
10 0 59739  31062.000000  0    5321589.172  -4034007.739   1685761.101
10 0 59739  31182.000000  0    5341172.382  -4276614.663    796320.848
10 0 59739  31302.000000  0    5263801.982  -4443956.446   -107139.864
10 0 59739  31422.000000  0    5092225.991  -4531468.118  -1008716.749
10 0 59739  31542.000000  0    4830920.249  -4536059.646  -1892555.180
10 0 59739  31662.000000  0    4485977.765  -4456196.040  -2743137.126
10 0 59739  31782.000000  0    4064966.672  -4291945.474  -3545559.230
10 0 59739  31902.000000  0    3576760.996  -4044994.732  -4285796.692
10 0 59739  32022.000000  0    3031348.777  -3718631.844  -4950947.130
10 0 59739  32142.000000  0    2439622.348  -3317697.603  -5529450.177
10 0 59739  32262.000000  0    1813157.369  -2848507.823  -6011278.670
10 0 59739  32382.000000  0    1163985.884  -2318749.786  -6388102.182
10 0 59739  32502.000000  0     504365.294  -1737352.595  -6653421.633
10 0 59739  32622.000000  0    -153451.021  -1114334.054  -6802670.540
10 0 59739  32742.000000  0    -797436.620   -460628.796  -6833284.048
10 0 59739  32862.000000  0   -1416006.191    212099.973  -6744737.721
10 0 59739  32982.000000  0   -1998219.360    891663.372  -6538554.936
10 0 59739  33102.000000  0   -2533969.590   1565562.039  -6218283.410
10 0 59739  33222.000000  0   -3014156.485   2221210.314  -5789440.916
10 0 59739  33342.000000  0   -3430840.309   2846167.272  -5259431.003
10 0 59739  33462.000000  0   -3777376.498   3428371.714  -4637427.176
10 0 59739  33582.000000  0   -4048526.921   3956375.979  -3934224.433
10 0 59739  33702.000000  0   -4240543.542   4419573.697  -3162060.654
10 0 59739  33822.000000  0   -4351223.932   4808417.437  -2334411.360
10 0 59739  33942.000000  0   -4379938.111   5114620.472  -1465758.547
10 0 59739  34062.000000  0   -4327624.836   5331338.712   -571337.879
10 0 59739  34182.000000  0   -4196755.469   5453327.286    333133.649
10 0 59739  34302.000000  0   -3991265.902   5477064.995   1231740.342
10 0 59739  34422.000000  0   -3716459.339   5400846.737   2108657.368
10 0 59739  34542.000000  0   -3378880.360   5224837.040   2948440.008
10 0 59739  34662.000000  0   -2986163.075   4951085.167   3736303.305
10 0 59739  34782.000000  0   -2546860.262   4583503.015   4458386.977
10 0 59739  34902.000000  0   -2070256.695   4127805.840   5102002.145
10 0 59739  35022.000000  0   -1566171.653   3591416.976   5655854.385
10 0 59739  35142.000000  0   -1044754.592   2983339.342   6110238.932
10 0 59739  35262.000000  0    -516279.676   2313997.082   6457204.957
10 0 59739  35382.000000  0       9056.069   1595052.089   6690687.724
10 0 59739  35502.000000  0     521328.894    839197.977   6806609.623
10 0 59739  35622.000000  0    1011075.146     59934.616   6802946.018
10 0 59739  35742.000000  0    1469464.899   -728671.817   6679758.702
10 0 59739  35862.000000  0    1888460.667  -1512242.334   6439195.677
10 0 59739  35982.000000  0    2260958.548  -2276346.403   6085456.380
10 0 59739  36102.000000  0    2580910.137  -3006768.531   5624723.783
10 0 59739  36222.000000  0    2843422.845  -3689774.953   5065061.713
10 0 59739  36342.000000  0    3044836.177  -4312375.319   4416279.472
10 0 59739  36462.000000  0    3182774.115  -4862575.789   3689765.199
10 0 59739  36582.000000  0    3256170.913  -5329616.903   2898288.001
10 0 59739  36702.000000  0    3265270.175  -5704191.428   2055773.594
10 0 59739  36822.000000  0    3211595.823  -5978636.460   1177055.902
10 0 59739  36942.000000  0    3097896.771  -6147093.886    277610.550
10 0 59739  37062.000000  0    2928067.193  -6205637.207   -626724.065
10 0 59739  37182.000000  0    2707042.257  -6152360.862  -1520035.952
10 0 59739  37302.000000  0    2440671.986  -5987425.862  -2386628.117
10 0 59739  37422.000000  0    2135578.744  -5713065.812  -3211301.157
10 0 59739  37542.000000  0    1798999.167  -5333550.756  -3979625.574
10 0 59739  37662.000000  0    1438616.996  -4855108.917  -4678194.050
10 0 59739  37782.000000  0    1062392.478  -4285812.501  -5294850.833
10 0 59739  37902.000000  0     678390.756  -3635431.163  -5818896.091
10 0 59739  38022.000000  0     294612.904  -2915255.343  -6241261.924
10 0 59739  38142.000000  0     -81166.704  -2137894.332  -6554657.794
10 0 59739  38262.000000  0    -441553.516  -1317053.161  -6753685.168
10 0 59739  38382.000000  0    -779673.568   -467292.172  -6834921.319
10 0 59739  38502.000000  0   -1089300.303    396227.703  -6796971.462
10 0 59739  38622.000000  0   -1364966.310   1258008.752  -6640489.026
10 0 59739  38742.000000  0   -1602057.594   2102487.610  -6368165.475
10 0 59739  38862.000000  0   -1796889.343   2914309.185  -5984689.543
10 0 59739  38982.000000  0   -1946763.386   3678602.266  -5496676.086
10 0 59739  39102.000000  0   -2050004.981   4381250.795  -4912562.689
10 0 59739  39222.000000  0   -2105979.481   5009157.775  -4242475.462
10 0 59739  39342.000000  0   -2115087.426   5550495.537  -3498062.763
10 0 59739  39462.000000  0   -2078737.453   5994936.137  -2692300.495
10 0 59739  39582.000000  0   -1999297.694   6333858.687  -1839271.933
10 0 59739  39702.000000  0   -1880027.169   6560527.842   -953922.618
10 0 59739  39822.000000  0   -1724987.623   6670236.915    -51796.993
10 0 59739  39942.000000  0   -1538937.885   6660415.207    851238.915
10 0 59739  40062.000000  0   -1327213.096   6530692.501   1739287.428
10 0 59739  40182.000000  0   -1095591.132   6282914.672   2596709.736
10 0 59739  40302.000000  0    -850150.809   5921115.377   3408408.492
10 0 59739  40422.000000  0    -597125.833   5451445.728   4160099.029
10 0 59739  40542.000000  0    -342758.263   4882063.281   4838566.028
10 0 59739  40662.000000  0     -93152.953   4222977.583   5431898.064
10 0 59739  40782.000000  0     145861.496   3485865.077   5929691.714
10 0 59739  40902.000000  0     368861.631   2683854.427   6323231.221
10 0 59739  41022.000000  0     570946.577   1831285.415   6605634.788
10 0 59739  41142.000000  0     747841.472    943448.374   6771969.104
10 0 59739  41262.000000  0     895984.820     36307.746   6819329.538
10 0 59739  41382.000000  0    1012598.606   -873783.699   6746887.825
10 0 59739  41502.000000  0    1095739.945  -1770379.317   6555906.757
10 0 59739  41622.000000  0    1144333.576  -2637235.380   6249719.927
10 0 59739  41742.000000  0    1158184.629  -3458606.734   5833677.532
10 0 59739  41862.000000  0    1137970.659  -4219535.176   5315056.614
10 0 59739  41982.000000  0    1085215.220  -4906124.333   4702939.255
10 0 59739  42102.000000  0    1002242.348  -5505799.649   4008060.675
10 0 59739  42222.000000  0     892112.464  -6007548.855   3242625.333
10 0 59739  42342.000000  0     758541.184  -6402134.333   2420093.221
99
